0 BREEZE-M DEB
1 38636U 08011CK  13280.18943686  .00001034  00000-0  19038-2 0  2270
2 38636 048.9904 156.0881 6586145 272.0387 227.4448 03.08113109 27988
0 BREEZE-M DEB
1 38636U 08011CK  13281.30015410  .00000623  00000-0  96873-3 0  2287
2 38636 048.9785 155.6796 6588048 272.3956 019.4835 03.08119012 28028
0 BREEZE-M DEB
1 38636U 08011CK  13289.37086634  .00000874  00000-0  16839-2 0  2290
2 38636 048.9936 152.6105 6585417 275.0566 331.9972 03.08145069 28262
0 BREEZE-M DEB
1 38636U 08011CK  13291.65205409  .00001519  00000-0  30890-2 0  2309
2 38636 048.9951 151.7418 6585664 275.8101 342.6170 03.08142651 28334
0 BREEZE-M DEB
1 38636U 08011CK  13293.95705284  .00001645  00000-0  33866-2 0  2317
2 38636 048.9958 150.8701 6585391 276.5649 019.6397 03.08146428 28415
